     2              NAVIGATION DATA                         RINEX VERSION / TYPE
CCRINEXN V1.6.0 UX  CDDIS               11-SEP-10 15:33     PGM / RUN BY / DATE 
IGS BROADCAST EPHEMERIS FILE                                COMMENT             
    0.7451D-08  0.1490D-07 -0.5960D-07 -0.1192D-06          ION ALPHA           
    0.7987D+05  0.1638D+05 -0.1311D+06 -0.1311D+06          ION BETA            
    0.186264514923D-08 0.159872115546D-13   589824     1600 DELTA-UTC: A0,A1,T,W
    15                                                      LEAP SECONDS        
                                                            END OF HEADER       
22 10  9 10 18  0  0.0 0.163333024830D-03-0.102318153950D-11 0.000000000000D+00
    0.740000000000D+02 0.677500000000D+02 0.536093759028D-08 0.276994097367D+01
    0.349618494511D-05 0.559763424098D-02 0.191666185856D-05 0.515371633148D+04
    0.496800000000D+06 0.109896063805D-06-0.144124990429D+01 0.223517417908D-07
    0.933301934423D+00 0.327250000000D+03-0.193363823358D+01-0.867714715229D-08
    0.206080012631D-09 0.100000000000D+01 0.160000000000D+04 0.000000000000D+00
    0.280000000000D+01 0.000000000000D+00-0.176951289177D-07 0.740000000000D+02
    0.489600000000D+06 0.000000000000D+00 0.000000000000D+00 0.000000000000D+00
23 10  9 10 18  0  0.0 0.354439951479D-03-0.181898940355D-11 0.000000000000D+00
    0.190000000000D+02-0.107718750000D+03 0.441696969880D-08 0.102753652957D+01
   -0.548735260963D-05 0.700444076210D-02 0.598654150963D-05 0.515364474297D+04
    0.496800000000D+06 0.689178705216D-07-0.409786030696D+00 0.236555933952D-06
    0.967132481155D+00 0.267000000000D+03 0.309288571046D+01-0.823141430002D-08
   -0.456447584303D-09 0.100000000000D+01 0.160000000000D+04 0.000000000000D+00
    0.200000000000D+01 0.000000000000D+00-0.200234353542D-07 0.190000000000D+02
    0.489618000000D+06 0.400000000000D+01 0.000000000000D+00 0.000000000000D+00
24 10  9 10 18  0  0.0 0.320498365909D-03 0.329691829393D-11 0.000000000000D+00
    0.850000000000D+02 0.916250000000D+02 0.451054502516D-08 0.134496386205D+01
    0.473856925964D-05 0.573018123396D-02 0.122524797916D-04 0.515479365349D+04
    0.496800000000D+06 0.949949026108D-07-0.246198143927D+01 0.856816768646D-07
    0.949196341860D+00 0.131937500000D+03-0.400232638747D+00-0.799604735318D-08
   -0.625026034843D-10 0.100000000000D+01 0.160000000000D+04 0.000000000000D+00
    0.200000000000D+01 0.000000000000D+00-0.139698386192D-08 0.850000000000D+02
    0.490620000000D+06 0.000000000000D+00 0.000000000000D+00 0.000000000000D+00
25 10  9 10 18  0  0.0-0.411393120885D-04-0.102318153950D-11 0.000000000000D+00
    0.146000000000D+03 0.402500000000D+02 0.512664211665D-08 0.289205041074D+01
    0.206008553505D-05 0.744658871554D-03 0.480934977531D-05 0.515377067375D+04
    0.496800000000D+06 0.651925802231D-07 0.165965316340D+01 0.409781932831D-07
    0.960361331178D+00 0.287187500000D+03 0.196843489580D+01-0.848071039849D-08
    0.435375277985D-09 0.100000000000D+01 0.160000000000D+04 0.000000000000D+00
    0.280000000000D+01 0.000000000000D+00 0.465661287308D-08 0.146000000000D+03
    0.489600000000D+06 0.000000000000D+00 0.000000000000D+00 0.000000000000D+00
26 10  9 10 18  0  0.0-0.845873728395D-05-0.693489710102D-11 0.000000000000D+00
    0.260000000000D+02-0.927812500000D+02 0.395052168756D-08 0.734730522373D+00
   -0.495463609695D-05 0.198072461644D-01 0.679865479469D-05 0.515363974953D+04
    0.496800000000D+06-0.255182385445D-06-0.350342224154D+00-0.353902578354D-07
    0.989911571253D+00 0.269250000000D+03 0.111041848397D+01-0.820427015214D-08
   -0.548237122366D-09 0.100000000000D+01 0.160000000000D+04 0.000000000000D+00
    0.200000000000D+01 0.000000000000D+00-0.605359673500D-08 0.260000000000D+02
    0.489618000000D+06 0.400000000000D+01 0.000000000000D+00 0.000000000000D+00
27 10  9 10 18  0  0.0 0.187763012946D-03 0.352429196937D-11 0.000000000000D+00
    0.660000000000D+02-0.273125000000D+02 0.377658571082D-08 0.186554880355D+01
   -0.149570405483D-05 0.215638015652D-01 0.123269855976D-04 0.515359086418D+04
    0.496800000000D+06 0.439584255218D-06 0.576551320088D+00-0.247731804848D-06
    0.979495483347D+00 0.149968750000D+03-0.137473429470D+01-0.739816519157D-08
    0.284654716465D-09 0.100000000000D+01 0.160000000000D+04 0.000000000000D+00
    0.200000000000D+01 0.000000000000D+00-0.419095158577D-08 0.660000000000D+02
    0.489618000000D+06 0.400000000000D+01 0.000000000000D+00 0.000000000000D+00
28 10  9 10 18  0  0.0-0.407872721553D-05 0.136424205266D-11 0.000000000000D+00
    0.230000000000D+02 0.280312500000D+02 0.477555595069D-08 0.291193432598D+01
    0.132806599140D-05 0.161551180063D-01 0.502169132233D-05 0.515367144585D+04
    0.496800000000D+06 0.117346644402D-06 0.171160931926D+01-0.264495611191D-06
    0.971063770670D+00 0.286625000000D+03-0.194720112118D+01-0.797997490309D-08
    0.375015629661D-09 0.100000000000D+01 0.160000000000D+04 0.000000000000D+00
    0.200000000000D+01 0.000000000000D+00-0.107102096081D-07 0.230000000000D+02
    0.493968000000D+06 0.400000000000D+01 0.000000000000D+00 0.000000000000D+00
29 10  9 10 18  0  0.0 0.148409511894D-03 0.272848410532D-11 0.000000000000D+00
    0.870000000000D+02-0.644062500000D+02 0.472876840076D-08-0.133097419882D+01
   -0.344403088093D-05 0.269824208226D-02 0.842660665512D-05 0.515367581177D+04
    0.496800000000D+06-0.178813934326D-06 0.275565457361D+01-0.186264514923D-07
    0.961134745246D+00 0.214593750000D+03-0.124761856764D+01-0.821141346690D-08
   -0.651455707174D-09 0.100000000000D+01 0.160000000000D+04 0.000000000000D+00
    0.200000000000D+01 0.000000000000D+00-0.884756445885D-08 0.870000000000D+02
    0.489600000000D+06 0.000000000000D+00 0.000000000000D+00 0.000000000000D+00
30 10  9 10 18  0  0.0 0.277187675238D-03 0.329691829393D-11 0.000000000000D+00
    0.440000000000D+02 0.456875000000D+02 0.514807158070D-08-0.297748959276D+01
    0.229291617870D-05 0.126156428596D-01 0.465475022793D-05 0.515368912125D+04
    0.496800000000D+06 0.262632966042D-06 0.163119570704D+01 0.465661287308D-07
    0.957004870454D+00 0.285937500000D+03 0.151363759537D+01-0.831177479021D-08
    0.486091676241D-09 0.100000000000D+01 0.160000000000D+04 0.000000000000D+00
    0.200000000000D+01 0.000000000000D+00-0.791624188423D-08 0.440000000000D+02
    0.489600000000D+06 0.000000000000D+00 0.000000000000D+00 0.000000000000D+00
31 10  9 10 18  0  0.0-0.103269703686D-04 0.306954461848D-11 0.000000000000D+00
    0.108000000000D+03-0.531250000000D+00 0.389266214500D-08-0.597034238838D+00
   -0.368803739548D-06 0.738238461781D-02 0.132378190756D-04 0.515376551437D+04
    0.496800000000D+06-0.162050127983D-06 0.632270630827D+00-0.372529029846D-07
    0.977998692863D+00 0.135156250000D+03-0.105227481369D+01-0.777603818892D-08
    0.460733477113D-09 0.100000000000D+01 0.160000000000D+04 0.000000000000D+00
    0.200000000000D+01 0.000000000000D+00-0.130385160446D-07 0.108000000000D+03
    0.489600000000D+06 0.000000000000D+00 0.000000000000D+00 0.000000000000D+00
32 10  9 10 18  0  0.0-0.821701250970D-04-0.898126018001D-11 0.000000000000D+00
    0.310000000000D+02 0.574062500000D+02 0.504306720685D-08 0.198473996336D+00
    0.286661088467D-05 0.126734848600D-01 0.265985727310D-05 0.515363017082D+04
    0.496800000000D+06 0.298023223877D-07-0.138038120091D+01-0.270083546638D-06
    0.957456479117D+00 0.331187500000D+03-0.938030476254D+00-0.884715423377D-08
    0.928610108910D-10 0.100000000000D+01 0.160000000000D+04 0.000000000000D+00
    0.200000000000D+01 0.000000000000D+00-0.325962901115D-08 0.310000000000D+02
    0.494970000000D+06 0.000000000000D+00 0.000000000000D+00 0.000000000000D+00
25 10  9 10 19 59 12.0-0.411444343626D-04-0.909494701773D-12 0.000000000000D+00
    0.330000000000D+02 0.347812500000D+02 0.502128058506D-08-0.234790397105D+01
    0.190362334251D-05 0.743782264180D-03 0.501610338688D-05 0.515377229309D+04
    0.503952000000D+06-0.633299350738D-07 0.165959223871D+01-0.167638063431D-07
    0.960365079175D+00 0.283468750000D+03 0.196832840121D+01-0.839106380720D-08
    0.528236288876D-09 0.100000000000D+01 0.160000000000D+04 0.000000000000D+00
    0.200000000000D+01 0.000000000000D+00 0.465661287308D-08 0.330000000000D+02
    0.499560000000D+06 0.000000000000D+00 0.000000000000D+00 0.000000000000D+00
31 10  9 10 19 59 28.0-0.102994963527D-04 0.306954461848D-11 0.000000000000D+00
    0.000000000000D+00-0.475000000000D+01 0.383194533019D-08 0.448315271342D+00
   -0.273808836937D-06 0.738195667509D-02 0.124443322420D-04 0.515376458549D+04
    0.503968000000D+06-0.391155481338D-07 0.632215271081D+00-0.126659870148D-06
    0.978001413890D+00 0.145875000000D+03-0.105217051055D+01-0.781889711702D-08
    0.353943314588D-09 0.100000000000D+01 0.160000000000D+04 0.000000000000D+00
    0.200000000000D+01 0.000000000000D+00-0.130385160446D-07 0.000000000000D+00
    0.498600000000D+06 0.000000000000D+00 0.000000000000D+00 0.000000000000D+00
17 10  9 10 19 59 44.0 0.170232728124D-03 0.147792889038D-11 0.000000000000D+00
    0.100000000000D+01-0.658125000000D+02 0.483770150969D-08-0.293254687098D+01
   -0.339001417160D-05 0.556941516697D-02 0.827759504318D-05 0.515365255737D+04
    0.503984000000D+06 0.186264514923D-08 0.274729609461D+01-0.141561031342D-06
    0.960759086901D+00 0.217843750000D+03-0.250740307216D+01-0.810283751571D-08
   -0.608953936804D-09 0.100000000000D+01 0.160000000000D+04 0.000000000000D+00
    0.200000000000D+01 0.000000000000D+00-0.102445483208D-07 0.100000000000D+01
    0.501798000000D+06 0.400000000000D+01 0.000000000000D+00 0.000000000000D+00
